CTC1_L_00364016-03
1 34050U 24886CQ  26070.40835648  .00000000  00000+0  00000-0 0  9992
2 34050  50.0000 180.0000 0000000   0.0000   0.0000 13.69880518    18
CTC1_L_00364016-04
1 34051U 26192RP  26070.40835648  .00000000  00000+0  00000-0 0  9995
2 34051  50.0000 180.0000 0000000   0.0000  90.0000 13.69880518    18
CTC1_L_00364017-01
1 34052U 22919ZD  26070.40835648  .00000000  00000+0  00000-0 0  9999
2 34052  50.0000 192.0000 0000000   0.0000 192.0000 13.69880518    15
CTC1_L_00364017-02
1 34053U 25868XZ  26070.40835648  .00000000  00000+0  00000-0 0  9996
2 34053  50.0000 192.0000 0000000   0.0000 282.0000 13.69880518    16
CTC1_L_00364017-03
1 34054U 26502YQ  26070.40835648  .00000000  00000+0  00000-0 0  9993
2 34054  50.0000 192.0000 0000000   0.0000  12.0000 13.69880518    18
CTC1_L_00364017-04
1 34055U 23201BL  26070.40835648  .00000000  00000+0  00000-0 0  9997
2 34055  50.0000 192.0000 0000000   0.0000 102.0000 13.69880518    19
CTC1_L_00364018-01
1 34056U 23751QK  26070.40835648  .00000000  00000+0  00000-0 0  9998
2 34056  50.0000 204.0000 0000000   0.0000 204.0000 13.69880518    17
CTC1_L_00364018-02
1 34057U 24358YX  26070.40835648  .00000000  00000+0  00000-0 0  9993
2 34057  50.0000 204.0000 0000000   0.0000 294.0000 13.69880518    17
CTC1_L_00364018-03
1 34058U 24897DC  26070.40835648  .00000000  00000+0  00000-0 0  9992
2 34058  50.0000 204.0000 0000000   0.0000  24.0000 13.69880518    19
CTC1_L_00364018-04
1 34059U 26157A   26070.40835648  .00000000  00000+0  00000-0 0  9994
2 34059  50.0000 204.0000 0000000   0.0000 114.0000 13.69880518    10
CTC1_L_00364019-01
1 34060U 25234CY  26070.40835648  .00000000  00000+0  00000-0 0  9991
2 34060  50.0000 216.0000 0000000   0.0000 216.0000 13.69880518    18
CTC1_L_00364019-02
1 34061U 24513NM  26070.40835648  .00000000  00000+0  00000-0 0  9991
2 34061  50.0000 216.0000 0000000   0.0000 306.0000 13.69880518    19
CTC1_L_00364019-03
1 34062U 25829TJ  26070.40835648  .00000000  00000+0  00000-0 0  9993
2 34062  50.0000 216.0000 0000000   0.0000  36.0000 13.69880518    10
CTC1_L_00364019-04
1 34063U 26328GK  26070.40835648  .00000000  00000+0  00000-0 0  9999
2 34063  50.0000 216.0000 0000000   0.0000 126.0000 13.69880518    11
CTC1_L_00364020-01
1 34064U 26799CK  26070.40835648  .00000000  00000+0  00000-0 0  9992
2 34064  50.0000 228.0000 0000000   0.0000 228.0000 13.69880518    18
CTC1_L_00364020-02
1 34065U 23057EQ  26070.40835648  .00000000  00000+0  00000-0 0  9997
2 34065  50.0000 228.0000 0000000   0.0000 318.0000 13.69880518    19
CTC1_L_00364020-03
1 34066U 24196MH  26070.40835648  .00000000  00000+0  00000-0 0  9993
2 34066  50.0000 228.0000 0000000   0.0000  48.0000 13.69880518    10
CTC1_L_00364020-04
1 34067U 22896XY  26070.40835648  .00000000  00000+0  00000-0 0  9999
2 34067  50.0000 228.0000 0000000   0.0000 138.0000 13.69880518    11
CTC1_L_00364021-01
1 34068U 22739MI  26070.40835648  .00000000  00000+0  00000-0 0  9996
2 34068  50.0000 240.0000 0000000   0.0000 240.0000 13.69880518    10
CTC1_L_00364021-02
1 34069U 26651YS  26070.40835648  .00000000  00000+0  00000-0 0  9994
2 34069  50.0000 240.0000 0000000   0.0000 330.0000 13.69880518    11
CTC1_L_00364021-03
1 34070U 23424FS  26070.40835648  .00000000  00000+0  00000-0 0  9991
2 34070  50.0000 240.0000 0000000   0.0000  60.0000 13.69880518    13
CTC1_L_00364021-04
1 34071U 23363SE  26070.40835648  .00000000  00000+0  00000-0 0  9994
2 34071  50.0000 240.0000 0000000   0.0000 150.0000 13.69880518    14
CTC1_L_00364022-01
1 34072U 26868FJ  26070.40835648  .00000000  00000+0  00000-0 0  9998
2 34072  50.0000 252.0000 0000000   0.0000 252.0000 13.69880518    11
CTC1_L_00364022-02
1 34073U 24885AO  26070.40835648  .00000000  00000+0  00000-0 0  9996
2 34073  50.0000 252.0000 0000000   0.0000 342.0000 13.69880518    12
CTC1_L_00364022-03
1 34074U 24103KL  26070.40835648  .00000000  00000+0  00000-0 0  9990
2 34074  50.0000 252.0000 0000000   0.0000  72.0000 13.69880518    13
CTC1_L_00364022-04
1 34075U 23709HW  26070.40835648  .00000000  00000+0  00000-0 0  9992
2 34075  50.0000 252.0000 0000000   0.0000 162.0000 13.69880518    14
CTC1_L_00364023-01
1 34076U 24876MF  26070.40835648  .00000000  00000+0  00000-0 0  9999
2 34076  50.0000 264.0000 0000000   0.0000 264.0000 13.69880518    11
CTC1_L_00364023-02
1 34077U 24953SL  26070.40835648  .00000000  00000+0  00000-0 0  9996
2 34077  50.0000 264.0000 0000000   0.0000 354.0000 13.69880518    12
CTC1_L_00364023-03
1 34078U 23790ZF  26070.40835648  .00000000  00000+0  00000-0 0  9995
2 34078  50.0000 264.0000 0000000   0.0000  84.0000 13.69880518    13
CTC1_L_00364023-04
1 34079U 22525WL  26070.40835648  .00000000  00000+0  00000-0 0  9991
2 34079  50.0000 264.0000 0000000   0.0000 174.0000 13.69880518    14
CTC1_L_00364024-01
1 34080U 22020RM  26070.40835648  .00000000  00000+0  00000-0 0  9993
2 34080  50.0000 276.0000 0000000   0.0000 276.0000 13.69880518    12
CTC1_L_00364024-02
1 34081U 24819IE  26070.40835648  .00000000  00000+0  00000-0 0  9992
2 34081  50.0000 276.0000 0000000   0.0000   6.0000 13.69880518    14
CTC1_L_00364024-03
1 34082U 25634CD  26070.40835648  .00000000  00000+0  00000-0 0  9999
2 34082  50.0000 276.0000 0000000   0.0000  96.0000 13.69880518    14
CTC1_L_00364024-04
1 34083U 25998OE  26070.40835648  .00000000  00000+0  00000-0 0  9993
2 34083  50.0000 276.0000 0000000   0.0000 186.0000 13.69880518    15
CTC1_L_00364025-01
1 34084U 24365UU  26070.40835648  .00000000  00000+0  00000-0 0  9991
2 34084  50.0000 288.0000 0000000   0.0000 288.0000 13.69880518    12
CTC1_L_00364025-02
1 34085U 22376QL  26070.40835648  .00000000  00000+0  00000-0 0  9992
2 34085  50.0000 288.0000 0000000   0.0000  18.0000 13.69880518    14
CTC1_L_00364025-03
1 34086U 23993WB  26070.40835648  .00000000  00000+0  00000-0 0  9999
2 34086  50.0000 288.0000 0000000   0.0000 108.0000 13.69880518    15
CTC1_L_00364025-04
1 34087U 25417IM  26070.40835648  .00000000  00000+0  00000-0 0  9993
2 34087  50.0000 288.0000 0000000   0.0000 198.0000 13.69880518    15
CTC1_L_00364026-01
1 34088U 26699YM  26070.40835648  .00000000  00000+0  00000-0 0  9997
2 34088  50.0000 300.0000 0000000   0.0000 300.0000 13.69880518    16
CTC1_L_00364026-02
1 34089U 25452ID  26070.40835648  .00000000  00000+0  00000-0 0  9994
2 34089  50.0000 300.0000 0000000   0.0000  30.0000 13.69880518    17
CTC1_L_00364026-03
1 34090U 23246EB  26070.40835648  .00000000  00000+0  00000-0 0  9995
2 34090  50.0000 300.0000 0000000   0.0000 120.0000 13.69880518    19
CTC1_L_00364026-04
1 34091U 26747WE  26070.40835648  .00000000  00000+0  00000-0 0  9995
2 34091  50.0000 300.0000 0000000   0.0000 210.0000 13.69880518    10
CTC1_L_00364027-01
1 34092U 22930ZE  26070.40835648  .00000000  00000+0  00000-0 0  9996
2 34092  50.0000 312.0000 0000000   0.0000 312.0000 13.69880518    17
CTC1_L_00364027-02
1 34093U 25628XW  26070.40835648  .00000000  00000+0  00000-0 0  9994
2 34093  50.0000 312.0000 0000000   0.0000  42.0000 13.69880518    18
CTC1_L_00364027-03
1 34094U 25734VR  26070.40835648  .00000000  00000+0  00000-0 0  9993
2 34094  50.0000 312.0000 0000000   0.0000 132.0000 13.69880518    19
CTC1_L_00364027-04
1 34095U 23975FS  26070.40835648  .00000000  00000+0  00000-0 0  9999
2 34095  50.0000 312.0000 0000000   0.0000 222.0000 13.69880518    10
CTC1_L_00364028-01
1 34096U 22522LP  26070.40835648  .00000000  00000+0  00000-0 0  9997
2 34096  50.0000 324.0000 0000000   0.0000 324.0000 13.69880518    17
CTC1_L_00364028-02
1 34097U 25047DF  26070.40835648  .00000000  00000+0  00000-0 0  9993
2 34097  50.0000 324.0000 0000000   0.0000  54.0000 13.69880518    18
CTC1_L_00364028-03
1 34098U 26168ZM  26070.40835648  .00000000  00000+0  00000-0 0  9999
2 34098  50.0000 324.0000 0000000   0.0000 144.0000 13.69880518    19
CTC1_L_00364028-04
1 34099U 22650PK  26070.40835648  .00000000  00000+0  00000-0 0  9992
2 34099  50.0000 324.0000 0000000   0.0000 234.0000 13.69880518    10
CTC1_L_00364029-01
1 34100U 25075DZ  26070.40835648  .00000000  00000+0  00000-0 0  9999
2 34100  50.0000 336.0000 0000000   0.0000 336.0000 13.69880518    19
CTC1_L_00364029-02
1 34101U 23768FC  26070.40835648  .00000000  00000+0  00000-0 0  9997
2 34101  50.0000 336.0000 0000000   0.0000  66.0000 13.69880518    10
CTC1_L_00364029-03
1 34102U 25237EW  26070.40835648  .00000000  00000+0  00000-0 0  9991
2 34102  50.0000 336.0000 0000000   0.0000 156.0000 13.69880518    11
CTC1_L_00364029-04
1 34103U 23661PB  26070.40835648  .00000000  00000+0  00000-0 0  9991
2 34103  50.0000 336.0000 0000000   0.0000 246.0000 13.69880518    12
CTC1_L_00364030-01
1 34104U 26719DH  26070.40835648  .00000000  00000+0  00000-0 0  9999
2 34104  50.0000 348.0000 0000000   0.0000 348.0000 13.69880518    19
CTC1_L_00364030-02
1 34105U 24483MA  26070.40835648  .00000000  00000+0  00000-0 0  9996
2 34105  50.0000 348.0000 0000000   0.0000  78.0000 13.69880518    10
CTC1_L_00364030-03
1 34106U 26475HZ  26070.40835648  .00000000  00000+0  00000-0 0  9990
2 34106  50.0000 348.0000 0000000   0.0000 168.0000 13.69880518    11
CTC1_L_00364030-04
1 34107U 24979HW  26070.40835648  .00000000  00000+0  00000-0 0  9998
2 34107  50.0000 348.0000 0000000   0.0000 258.0000 13.69880518    12
